#aV2008  7 26  0  0   .00000000      96 DD+AD WGS84 FIT  NGA
## 1489 518400.00000000   900.00000000 54673  .0000000000000
+   31     2  3  4  5  6  7  8  9 10 11 12 13 14 15 16 17 18
+         19 20 21 22 23 24 25 26 27 28 29 30 31 32  0  0  0
+          0  0  0  0  0  0  0  0  0  0  0  0  0  0  0  0  0
+          0  0  0  0  0  0  0  0  0  0  0  0  0  0  0  0  0
+          0  0  0  0  0  0  0  0  0  0  0  0  0  0  0  0  0
++         0  0  0  0  0  0  0  0  0  0  0  0  0  0  0  0  0
++         0  0  0  0  0  0  0  0  0  0  0  0  0  0  0  0  0
++         0  0  0  0  0  0  0  0  0  0  0  0  0  0  0  0  0
++         0  0  0  0  0  0  0  0  0  0  0  0  0  0  0  0  0
++         0  0  0  0  0  0  0  0  0  0  0  0  0  0  0  0  0
%c cc cc ccc ccc cccc cccc cccc cccc ccccc ccccc ccccc ccccc
%c cc cc ccc ccc cccc cccc cccc cccc ccccc ccccc ccccc ccccc
%f  0.0000000  0.000000000  0.00000000000  0.000000000000000
%f  0.0000000  0.000000000  0.00000000000  0.000000000000000
%i    0    0    0    0      0      0      0      0         0
%i    0    0    0    0      0      0      0      0         0
/*      NGA, ST. LOUIS,MO.                                  
/*   EPHEMERIS COMPUTED FROM  3 DAYS OF DATA                
/* CCCCCCCCCCCCCCCCCCCCCCCCCCCCCCCCCCCCCCCCCCCCCCCCCCCCCCCCC
/* CCCCCCCCCCCCCCCCCCCCCCCCCCCCCCCCCCCCCCCCCCCCCCCCCCCCCCCCC
*  2008  7 26  7  0   .00000000                                                 
P  2  12414.312747 -13474.691591  18957.410878    199.420948                    
V  2  24509.065118   2377.642832 -14612.900088      -.026141                    
P  3  -9893.275924  24359.426984  -2240.306506    260.869522                    
V  3  -4895.582241    497.878143  31016.550059       .051315                    
P  4  22770.878113  -7538.775726  11689.719971   -125.282686                    
V  4  14780.904911   3255.855864 -26100.686411      -.100817                    
P  5 -15296.754521 -21762.014461   1118.205887   -344.735597                    
V  5   1754.890391  -3253.978253 -31232.852685      -.289860                    
P  6 -14462.458275  22193.773598   2235.056623    163.903226                    
V  6  -1876.678970  -4071.294681  30956.578342       .026352                    
P  7  23449.067520   7684.742376   9906.090507       .848938                    
V  7 -12666.765384   1969.051464  28284.482533       .049794                    
P  8  26710.410700    696.740404  -2476.593576   -163.302683                    
V  8   2835.424073   1903.792469  31743.787191      -.015810                    
P  9  -9994.425515 -14168.212739 -20802.380028      7.017790                    
V  9  24907.174917   -767.998059 -11675.045922       .017898                    
P 10   2823.911933 -20226.274545  16665.723470     -3.235721                    
V 10  11445.304397  18365.099096  20500.691842      -.003894                    
P 11  13355.740697  13354.796162 -18937.196710     22.721515                    
V 11 -23326.899072   5653.960569 -12230.083432      -.005860                    
P 12 -11158.269822 -24068.402537  -2041.168848   -356.209463                    
V 12   3561.834942   1149.663870 -31636.524147       .008756                    
P 13  13132.531014   6221.014326  22110.823890    265.263610                    
V 13 -15957.818112  23343.043275   2904.132626       .014355                    
P 14 -19010.267019  11385.865702 -14459.206826   -239.768242                    
V 14   8983.674606 -16278.626140 -24561.724599       .044477                    
P 15   4408.600825 -23347.698426 -11837.672870   -149.092502                    
V 15   9922.910680 -11615.046421  26563.799319      -.064048                    
P 16  -7154.486829  16145.762691  19838.413336    115.264033                    
V 16 -12462.126543 -21816.735223  13508.547598      -.017750                    
P 17  19156.926578 -11912.575753 -13845.181266     38.755362                    
V 17  -7599.482205  16178.627749 -24518.061000       .000720                    
P 18 -18031.981935 -13143.591351 -14489.673036   -152.167271                    
V 18  -6189.117754 -17697.884506  23078.150961       .042630                    
P 19  -5076.403210  22502.589868 -12904.784661     33.997488                    
V 19 -11781.517005  11970.662140  25538.803615       .004411                    
P 20  12507.245806  23445.990997   -679.132477    109.096287                    
V 20  -3181.778194    941.421596 -31400.232111      -.008347                    
P 21 -25976.814537  -5126.074410   4908.867820     56.738130                    
V 21   6059.413901  -2624.339450  29977.228409      -.013363                    
P 22 -16126.965389   1354.642090 -20911.392028    211.452899                    
V 22 -11047.578559 -24610.231910   6811.906886       .000981                    
P 23   5567.399865  16606.519651  19820.793252    366.108843                    
V 23 -14497.260030  20844.546459 -13600.658841       .017603                    
P 24 -16269.162515 -13101.901561  16407.917666    112.275790                    
V 24  20768.099279   -388.709858  20758.573474       .028144                    
P 25  18401.501113  10254.359383  16423.475267   -202.113115                    
V 25 -20105.927235   3025.778914  21271.985673      -.121251                    
P 26   8580.065281 -23201.523087  -9384.110567    299.041390                    
V 26   8018.134428  -8247.295578  29776.310021       .065710                    
P 27  24792.733852   5354.430919   8768.964390    205.450451                    
V 27 -10097.139430   2350.016428  29265.445755       .027373                    
P 28  16330.027222    717.889598 -20615.077349    -21.376740                    
V 28  11395.052352  24469.134545   9372.968921      -.003088                    
P 29 -11816.892041  -9819.225330  21783.771040    -41.004986                    
V 29  15104.271618 -22842.364915  -2082.946427       .005634                    
P 30 -17903.741390 -17007.427299   9561.302446     87.837287                    
V 30  -3921.767398 -12337.096823 -28163.124394       .018820                    
P 31 -20996.003349   8925.189248  13895.245118    -24.950672                    
V 31 -17183.374204  -2380.936045 -24686.171378      -.001328                    
P 32   5990.256929  25063.678994  -6372.062383    309.679425                    
V 32  -5596.741841  -6969.283917 -30427.570920       .025410                    
EOF
